NORAD_CAT_ID,OBJECT_NAME,OBJECT_TYPE,EPOCH,MEAN_MOTION,ECCENTRICITY,INCLINATION,RA_OF_ASC_NODE,ARG_OF_PERICENTER,MEAN_ANOMALY,BSTAR,MEAN_MOTION_DOT,MEAN_MOTION_DDOT,TLE_LINE0,TLE_LINE1,TLE_LINE2,SEMIMAJOR_AXIS,PERIOD,APOGEE,PERIGEE,DECAYED
56795.0,STARLINK-6061,PAYLOAD,2024-05-19 05:04:19,14.98317737,0.0002674,69.9994,187.0879,270.7918,89.2934,-6.3253e-05,-8.47e-06,0.0,0 STARLINK-6061,1 56795U 23078AE  24140.21133689 -.00000847  00000-0 -63253-4 0  9990,2 56795  69.9994 187.0879 0002674 270.7918  89.2934 14.98317737 54658,6950.231,96.108,573.954,570.237,0.0
56795.0,STARLINK-6061,PAYLOAD,2024-05-19 13:05:00,14.98315216,0.0002528,69.9999,186.246,267.7268,92.3601,-5.5868e-05,-7.59e-06,0.0,0 STARLINK-6061,1 56795U 23078AE  24140.54514119 -.00000759  00000-0 -55868-4 0  9992,2 56795  69.9999 186.2460 0002528 267.7268  92.3601 14.98315216 54445,6950.239,96.108,573.861,570.347,0.0
56795.0,STARLINK-6061,PAYLOAD,2024-05-20 03:30:11,14.98316414,0.000311,69.999,184.732,271.0802,89.0001,0.00038469,4.498e-05,0.0,0 STARLINK-6061,1 56795U 23078AE  24141.14596889  .00004498  00000-0  38469-3 0  9992,2 56795  69.9990 184.7320 0003110 271.0802  89.0001 14.98316414 54790,6950.235,96.108,574.261,569.938,0.0
56795.0,STARLINK-6061,PAYLOAD,2024-05-20 11:30:50,14.98384923,0.0003186,69.9994,183.8903,271.7368,88.3426,-0.00073988,-8.923e-05,0.0,0 STARLINK-6061,1 56795U 23078AE  24141.47975404 -.00008923  00000-0 -73988-3 0  9996,2 56795  69.9994 183.8903 0003186 271.7368  88.3426 14.98384923 54847,6950.023,96.103,574.102,569.674,0.0
56795.0,STARLINK-6061,PAYLOAD,2024-05-20 13:06:59,14.98336667,0.0002908,69.9995,183.7221,273.7954,86.2873,0.00010633,1.176e-05,0.0,0 STARLINK-6061,1 56795U 23078AE  24141.54652392  .00001176  00000-0  10633-3 0  9991,2 56795  69.9995 183.7221 0002908 273.7954  86.2873 14.98336667 54591,6950.172,96.107,574.058,570.016,0.0
56795.0,STARLINK-6061,PAYLOAD,2024-05-21 05:08:21,14.98323321,0.0003014,69.9994,182.0387,271.0521,89.0292,9.065e-05,9.89e-06,0.0,0 STARLINK-6061,1 56795U 23078AE  24142.21413218  .00000989  00000-0  90650-4 0  9997,2 56795  69.9994 182.0387 0003014 271.0521  89.0292 14.98323321 54954,6950.214,96.107,574.173,569.984,0.0
56795.0,STARLINK-6061,PAYLOAD,2024-05-21 13:09:01,14.9832453,0.0002978,69.9995,181.1978,268.6828,91.399,8.6156e-05,9.35e-06,0.0,0 STARLINK-6061,1 56795U 23078AE  24142.54793231  .00000935  00000-0  86156-4 0  9996,2 56795  69.9995 181.1978 0002978 268.6828  91.3990 14.98324530 54742,6950.21,96.107,574.145,570.005,0.0
56795.0,STARLINK-6061,PAYLOAD,2024-05-21 19:33:33,14.98333043,0.0003062,69.9992,180.5244,270.1097,89.9711,5.2239e-05,5.3e-06,0.0,0 STARLINK-6061,1 56795U 23078AE  24142.81496767  .00000530  00000-0  52239-4 0  9996,2 56795  69.9992 180.5244 0003062 270.1097  89.9711 14.98333043 55046,6950.183,96.107,574.177,569.92,0.0
56795.0,STARLINK-6061,PAYLOAD,2024-05-22 11:34:53,14.98335322,0.0003106,69.9991,178.8415,270.4661,89.6142,-8.1399e-05,-1.064e-05,0.0,0 STARLINK-6061,1 56795U 23078AE  24143.48256849 -.00001064  00000-0 -81399-4 0  9999,2 56795  69.9991 178.8415 0003106 270.4661  89.6142 14.98335322 54882,6950.176,96.107,574.2,569.883,0.0
56795.0,STARLINK-6061,PAYLOAD,2024-05-23 05:12:22,14.9833084,0.0003275,69.9986,176.9895,273.4119,86.6665,1.3018e-05,6.2e-07,0.0,0 STARLINK-6061,1 56795U 23078AE  24144.21692711  .00000062  00000-0  13018-4 0  9991,2 56795  69.9986 176.9895 0003275 273.4119  86.6665 14.98330840 55254,6950.19,96.107,574.331,569.779,0.0
56795.0,STARLINK-6061,PAYLOAD,2024-05-23 10:00:46,14.98330989,0.0003265,69.9987,176.4846,272.8014,87.2772,1.487e-05,8.4e-07,0.0,0 STARLINK-6061,1 56795U 23078AE  24144.41720673  .00000084  00000-0  14870-4 0  9993,2 56795  69.9987 176.4846 0003265 272.8014  87.2772 14.98330989 55027,6950.19,96.107,574.324,569.786,0.0
56795.0,STARLINK-6061,PAYLOAD,2024-05-24 05:14:23,14.9832755,0.000307,69.9992,174.4652,264.5669,95.514,2.1343e-05,1.62e-06,0.0,0 STARLINK-6061,1 56795U 23078AE  24145.21832799  .00000162  00000-0  21343-4 0  9995,2 56795  69.9992 174.4652 0003070 264.5669  95.5140 14.98327550 55407,6950.2,96.107,574.199,569.932,0.0
56795.0,STARLINK-6061,PAYLOAD,2024-05-24 11:38:55,14.98329278,0.0003132,69.999,173.7914,265.9127,94.1674,-1.0284e-05,-2.16e-06,0.0,0 STARLINK-6061,1 56795U 23078AE  24145.48536794 -.00000216  00000-0 -10284-4 0  9994,2 56795  69.9990 173.7914 0003132 265.9127  94.1674 14.98329278 55182,6950.195,96.107,574.237,569.883,0.0
56795.0,STARLINK-6061,PAYLOAD,2024-05-24 19:39:34,14.98395107,0.0002685,69.9988,172.9485,268.4677,91.6174,-0.0010962,-0.0001317,0.0,0 STARLINK-6061,1 56795U 23078AE  24145.81914998 -.00013170  00000-0 -10962-2 0  9991,2 56795  69.9988 172.9485 0002685 268.4677  91.6174 14.98395107 55498,6949.992,96.103,573.723,569.99,0.0
56795.0,STARLINK-6061,PAYLOAD,2024-05-25 05:16:24,14.98331251,0.0003251,69.9986,171.9388,268.8142,91.2645,3.6437e-06,-5e-07,0.0,0 STARLINK-6061,1 56795U 23078AE  24146.21972541 -.00000050  00000-0  36437-5 0  9994,2 56795  69.9986 171.9388 0003251 268.8142  91.2645 14.98331251 55554,6950.189,96.107,574.314,569.795,0.0
56795.0,STARLINK-6061,PAYLOAD,2024-05-25 11:40:56,14.98332011,0.0003219,69.9986,171.2657,268.7808,91.2982,1.3221e-05,6.5e-07,0.0,0 STARLINK-6061,1 56795U 23078AE  24146.48676429  .00000065  00000-0  13221-4 0  9999,2 56795  69.9986 171.2657 0003219 268.7808  91.2982 14.98332011 55333,6950.187,96.107,574.289,569.814,0.0
56795.0,STARLINK-6061,PAYLOAD,2024-05-26 11:42:57,14.98329371,0.0003246,69.9986,168.7414,266.4345,93.6443,5.0588e-06,-3.3e-07,0.0,0 STARLINK-6061,1 56795U 23078AE  24147.48816528 -.00000033  00000-0  50588-5 0  9990,2 56795  69.9986 168.7414 0003246 266.4345  93.6443 14.98329371 55744,6950.195,96.107,574.316,569.804,0.0
56795.0,STARLINK-6061,PAYLOAD,2024-05-26 18:07:29,14.9833752,0.0003419,69.9993,168.0691,263.0673,97.0097,-0.00013437,-1.696e-05,0.0,0 STARLINK-6061,1 56795U 23078AE  24147.75520226 -.00001696  00000-0 -13437-3 0  9994,2 56795  69.9993 168.0691 0003419 263.0673  97.0097 14.98337520 55525,6950.17,96.107,574.411,569.658,0.0
56795.0,STARLINK-6061,PAYLOAD,2024-05-27 11:44:58,14.98330092,0.0003286,69.9986,166.2168,268.7665,91.3117,-1.7482e-05,-3.02e-06,0.0,0 STARLINK-6061,1 56795U 23078AE  24148.48956486 -.00000302  00000-0 -17482-4 0  9994,2 56795  69.9986 166.2168 0003286 268.7665  91.3117 14.98330092 55898,6950.193,96.107,574.341,569.774,0.0
56795.0,STARLINK-6061,PAYLOAD,2024-05-27 18:09:30,14.98330107,0.000329,69.9986,165.5433,269.6234,90.4548,-1.6326e-05,-2.88e-06,0.0,0 STARLINK-6061,1 56795U 23078AE  24148.75660470 -.00000288  00000-0 -16326-4 0  9998,2 56795  69.9986 165.5433 0003290 269.6234  90.4548 14.98330107 55673,6950.193,96.107,574.344,569.771,0.0
56795.0,STARLINK-6061,PAYLOAD,2024-05-28 10:10:51,14.98330093,0.000334,69.9985,163.8602,269.3971,90.6805,7.7615e-08,-9.2e-07,0.0,0 STARLINK-6061,1 56795U 23078AE  24149.42420384 -.00000092  00000-0  77615-7 0  9994,2 56795  69.9985 163.8602 0003340 269.3971  90.6805 14.98330093 55775,6950.193,96.107,574.379,569.736,0.0
56795.0,STARLINK-6061,PAYLOAD,2024-05-29 03:48:19,14.98330817,0.0003377,69.9984,162.0084,267.8095,92.2678,9.3504e-06,1.8e-07,0.0,0 STARLINK-6061,1 56795U 23078AE  24150.15856236  .00000018  00000-0  93504-5 0  9995,2 56795  69.9984 162.0084 0003377 267.8095  92.2678 14.98330817 56141,6950.19,96.107,574.402,569.708,0.0
56795.0,STARLINK-6061,PAYLOAD,2024-05-29 10:12:51,14.98332263,0.0003371,69.9983,161.335,268.8429,91.2343,2.4816e-05,2.03e-06,0.0,0 STARLINK-6061,1 56795U 23078AE  24150.42560070  .00000203  00000-0  24816-4 0  9998,2 56795  69.9983 161.3350 0003371 268.8429  91.2343 14.98332263 55924,6950.186,96.107,574.394,569.708,0.0
56795.0,STARLINK-6061,PAYLOAD,2024-05-30 03:50:20,14.98329612,0.0003323,69.9983,159.4834,267.6991,92.3788,9.4513e-08,-9.2e-07,0.0,0 STARLINK-6061,1 56795U 23078AE  24151.15996246 -.00000092  00000-0  94513-7 0  9998,2 56795  69.9983 159.4834 0003323 267.6991  92.3788 14.98329612 56297,6950.194,96.107,574.369,569.75,0.0
56795.0,STARLINK-6061,PAYLOAD,2024-05-30 10:14:53,14.98329054,0.0003331,69.9983,158.8101,267.7645,92.3133,-6.0588e-06,-1.65e-06,0.0,0 STARLINK-6061,1 56795U 23078AE  24151.42700299 -.00000165  00000-0 -60588-5 0  9994,2 56795  69.9983 158.8101 0003331 267.7645  92.3133 14.98329054 56073,6950.196,96.107,574.376,569.746,0.0
56795.0,STARLINK-6061,PAYLOAD,2024-05-31 03:52:21,14.9833117,0.0003347,69.9982,156.9585,267.7786,92.299,-1.9893e-05,-3.3e-06,0.0,0 STARLINK-6061,1 56795U 23078AE  24152.16136164 -.00000330  00000-0 -19893-4 0  9996,2 56795  69.9982 156.9585 0003347 267.7786  92.2990 14.98331170 56443,6950.189,96.107,574.381,569.728,0.0
56795.0,STARLINK-6061,PAYLOAD,2024-05-31 10:16:53,14.98332189,0.0003327,69.9983,156.2852,267.8447,92.2331,-3.8209e-06,-1.39e-06,0.0,0 STARLINK-6061,1 56795U 23078AE  24152.42840026 -.00000139  00000-0 -38209-5 0  9994,2 56795  69.9983 156.2852 0003327 267.8447  92.2331 14.98332189 56223,6950.186,96.107,574.363,569.739,0.0
56795.0,STARLINK-6061,PAYLOAD,2024-06-01 03:54:22,14.98328327,0.0003342,69.9983,154.4333,269.8502,90.2274,1.6586e-07,-9.1e-07,0.0,0 STARLINK-6061,1 56795U 23078AE  24153.16276230 -.00000091  00000-0  16586-6 0  9997,2 56795  69.9983 154.4333 0003342 269.8502  90.2274 14.98328327 56591,6950.198,96.107,574.386,569.74,0.0
56795.0,STARLINK-6061,PAYLOAD,2024-06-01 10:18:54,14.98329158,0.0003323,69.9983,153.7602,269.6228,90.4551,6.8454e-06,-1.1e-07,0.0,0 STARLINK-6061,1 56795U 23078AE  24153.42980170 -.00000011  00000-0  68454-5 0  9993,2 56795  69.9983 153.7602 0003323 269.6228  90.4551 14.98329158 56373,6950.195,96.107,574.37,569.751,0.0
56795.0,STARLINK-6061,PAYLOAD,2024-06-02 03:56:23,14.98330585,0.0003324,69.9983,151.9087,269.3982,90.6796,-2.9667e-06,-1.28e-06,0.0,0 STARLINK-6061,1 56795U 23078AE  24154.16416102 -.00000128  00000-0 -29667-5 0  9997,2 56795  69.9983 151.9087 0003324 269.3982  90.6796 14.98330585 56745,6950.191,96.107,574.366,569.746,0.0
